KUIPER-00074            
1 64821U 25151F   25307.89516654  .00003633  00000+0  50479-3 0  9998
2 64821  51.8990 126.8445 0012480 207.5106 152.5197 14.79952479 16814
KUIPER-00075            
1 64822U 25151G   25307.83616310  .00062380  00000+0  15459-2 0  9995
2 64822  51.8728 112.9751 0005114 178.5115 181.5889 15.39793777 17006
KUIPER-00076            
1 64823U 25151H   25307.89255434  .00003675  00000+0  51086-3 0  9997
2 64823  51.8979 129.3552 0004059 200.0721 160.0082 14.79928402 16786
KUIPER-00077            
1 64824U 25151J   25307.95475248  .00003417  00000+0  47710-3 0  9995
2 64824  51.8995 134.0818 0006488 154.6144 205.5138 14.79933592 16721
KUIPER-00078            
1 64825U 25151K   25307.92361454  .00022560  00000+0  29728-2 0  9994
2 64825  51.8986 131.7181 0007209 221.6591 138.3823 14.79998335 16755
KUIPER-00079            
1 64826U 25151L   25307.92264780  .00003742  00000+0  51949-3 0  9991
2 64826  51.8970 136.4116 0012166 177.3706 182.7323 14.79925018 17883
KUIPER-00080            
1 64827U 25151M   25307.91818133  .00003769  00000+0  52314-3 0  9994
2 64827  51.8970 136.7344 0005471 195.2167 164.8632 14.79934109 16683
KUIPER-00082            
1 64828U 25151N   25307.89791566 -.00004167  00000+0 -51815-3 0  9992
2 64828  51.8989 124.3308 0004634 210.5653 149.5040 14.79894988 16850
KUIPER-00083            
1 64829U 25151P   25307.88978288  .00003912  00000+0  54188-3 0  9991
2 64829  51.8983 131.8672 0010604 183.9901 176.0979 14.79923311 17934
KUIPER-00084            
1 64830U 25151Q   25307.94656364  .00003711  00000+0  51544-3 0  9998
2 64830  51.8979 141.6034 0012113 155.4005 204.7537 14.79917885 16610
KUIPER-00085            
1 64831U 25151R   25307.93159695 -.00003960  00000+0 -49041-3 0  9990
2 64831  51.9030 124.1919 0007673 189.6669 170.4147 14.79919189 16859
KUIPER-00086            
1 64832U 25151S   25307.92088232  .00004628  00000+0  63424-3 0  9999
2 64832  51.9033 134.2281 0011463 177.2578 182.8450 14.80008716 16717
KUIPER-00087            
1 64833U 25151T   25307.91670139  .00042946  00000+0  34434-2 0  9995
2 64833  51.8902 117.7442 0003435 202.4169 239.4920 14.99686959  3857
KUIPER-00089            
1 64834U 25151U   25307.93226064  .00004460  00000+0  50194-3 0  9993
2 64834  51.8968 121.6509 0002015 215.2137 144.8696 14.88367545 16890
KUIPER-00090            
1 64835U 25151V   25307.87347589  .00011440  00000+0  66290-3 0  9993
2 64835  51.8901 116.7609 0004294 246.2117 113.8409 15.12614579 16952
KUIPER-00091            
1 64836U 25151W   25307.91670139  .00033792  00000+0  33935-2 0  9992
2 64836  51.8929 119.4986 0008723 223.8469 293.4858 14.90948878  3544
KUIPER-00092            
1 64837U 25151X   25307.92535717  .00003412  00000+0  46945-3 0  9998
2 64837  51.9000 126.6742 0006586 179.1952 180.9022 14.80560012 18033
KUIPER-00093            
1 64838U 25151Y   25307.92605995  .00003772  00000+0  52260-3 0  9991
2 64838  51.8977 129.2033 0013952 189.9535 170.1153 14.79975603 16789
KUIPER-00094            
1 64839U 25151Z   25307.92340592  .00009386  00000+0  69475-3 0  9994
2 64839  51.8869 120.6458 0006018 206.8400 153.2262 15.03758085 16909
KUIPER-00081            
1 65132U 25171A   25307.85982157  .00060249  00000+0  15616-2 0  9996
2 65132  51.8767 357.2061 0005854  53.5893 306.5634 15.38433267 14220
KUIPER-00088            
1 65133U 25171B   25307.91670139 -.00003547  00000+0 -29569-3 0  9991
2 65133  51.9085   2.3780 0008247  59.5769  95.0401 14.95271001  4991
KUIPER-00095            
1 65134U 25171C   25307.91670139 -.00823919  00000+0 -24691-1 0  9994
2 65134  51.8756 357.3116 0004550  60.0715  64.9235 15.36372427  5556
KUIPER-00096            
1 65135U 25171D   25307.91670139 -.00008607  00000+0 -40195-3 0  9993
2 65135  51.8812 358.2877 0010899  72.7538 293.4588 15.18008861  5671
KUIPER-00097            
1 65136U 25171E   25307.91670139  .00008890  00000+0  53294-3 0  9990
2 65136  51.8907 359.7933 0008118  76.6421 212.0627 15.11647520  4462
KUIPER-00098            
1 65137U 25171F   25307.91670139 -.00001056  00000+0 -55730-4 0  9998
2 65137  51.8875   0.7258 0006458  73.8457 175.1467 15.03944774  3454
KUIPER-00099            
1 65138U 25171G   25307.91670139 -.00881112  00000+0 -33237-1 0  9993
2 65138  51.8788 357.3432 0007180  75.6758  62.6275 15.29256028  4735
KUIPER-00100            
1 65139U 25171H   25307.91670139 -.00517025  00000+0 -16049-1 0  9995
2 65139  51.8784 357.1384 0004050  60.2421 158.7671 15.34965605  5671
KUIPER-00102            
1 65140U 25171J   25307.91670139 -.01160555  00000+0 -42255-1 0  9998
2 65140  51.8791 357.5022 0007681  61.3093 328.8979 15.30714621  5749
KUIPER-00103            
1 65141U 25171K   25307.91670139 -.00013140  00000+0 -17008-2 0  9994
2 65141  51.8994   6.7509 0007126  79.0554  64.8951 14.79840176  4080
KUIPER-00104            
1 65142U 25171L   25307.91670139 -.00778656  00000+0 -39672-1 0  9995
2 65142  51.8848 358.6338 0004702  82.6220 166.1998 15.18940473  4548
KUIPER-00105            
1 65143U 25171M   25307.91670139 -.00024560  00000+0 -22202-2 0  9996
2 65143  51.9197   2.5071 0011424  48.5801 290.7245 14.94717587  5845
KUIPER-00106            
1 65144U 25171N   25307.44489164  .00008777  00000+0  79870-3 0  9995
2 65144  51.8946   8.1895 0009461  40.0397 320.1268 14.95836680 14039
KUIPER-00107            
1 65145U 25171P   25307.87435642  .00041267  00000+0  10802-2 0  9995
2 65145  51.8756 357.3046 0006087  67.5089 292.6542 15.38296690 14227
KUIPER-00108            
1 65146U 25171Q   25307.91670139 -.01019646  00000+0 -62649-1 0  9997
2 65146  51.8996 359.5460 0008014  57.4238  54.2859 15.12672057  5808
KUIPER-00109            
1 65147U 25171R   25307.91670139 -.00676200  00000+0 -28426-1 0  9997
2 65147  51.8821 357.7231 0013043  59.9990 257.4174 15.25363022  5824
KUIPER-00110            
1 65148U 25171S   25307.91670139 -.00007925  00000+0 -83074-3 0  9992
2 65148  51.8996   4.5322 0010751  54.6736 344.1726 14.87914244  3593
KUIPER-00111            
1 65149U 25171T   25307.44796431 -.00009953  00000+0 -12772-2 0  9994
2 65149  51.9001  11.3198 0009726  65.9957 294.2023 14.79928114 13980
KUIPER-00112            
1 65150U 25171U   25307.91670139  .00021950  00000+0  78633-3 0  9992
2 65150  51.8828 357.8519 0007449  93.7405 130.4369 15.28653371  5913
KUIPER-00114            
1 65151U 25171V   25307.91791587  .00003626  00000+0  50457-3 0  9998
2 65151  51.9013  11.7707 0005754  58.2549 301.8974 14.79924030 14013
KUIPER-00115            
1 65152U 25171W   25307.91670139 -.00192488  00000+0 -21677-1 0  9995
2 65152  51.9283   4.4027 0011405  76.2626 154.4579 14.87281389  5669
KUIPER-00116            
1 65153U 25171X   25307.91670139 -.00012015  00000+0 -15532-2 0  9997
2 65153  51.9002   9.1479 0010125  39.5346 199.7465 14.79793592  3974
KUIPER-00118            
1 65154U 25171Y   25307.47899673  .00003174  00000+0  44503-3 0  9990
2 65154  51.9015  13.6858 0001898  82.1929 277.9249 14.79943844 13953
KUIPER-00119            
1 65155U 25171Z   25307.91670139 -.00512062  00000+0 -37682-1 0  9995
2 65155  51.9040   0.9221 0007054  48.8521  21.8265 15.05171832  5430
KUIPER-00120            
1 65762U 25217A   25307.91670139 -.00784107  00000+0 -37104-1 0  9990
2 65762  51.8760 253.4926 0011808 238.5716 106.0936 15.21390436  5741
KUIPER-00132            
1 65763U 25217B   25307.55636219  .00038946  00000+0  10931-2 0  9993
2 65763  51.8641 254.1077 0005521 234.2316 125.8157 15.36166887  6011
KUIPER-00133            
1 65764U 25217C   25307.91670139 -.00676583  00000+0 -31158-1 0  9993
2 65764  51.8739 253.4433 0008144 269.5778 145.2459 15.22397247  5779
KUIPER-00139            
1 65765U 25217D   25307.91670139 -.00499787  00000+0 -18014-1 0  9999
2 65765  51.8700 252.5877 0006699 240.0188 220.3272 15.30139196  4786
KUIPER-00142            
1 65766U 25217E   25307.85735702  .00051213  00000+0  13869-2 0  9991
2 65766  51.8706 252.3969 0002824 202.4324 157.6539 15.37163654  6067
KUIPER-00145            
1 65767U 25217F   25307.86257913  .00048163  00000+0  13210-2 0  9996
2 65767  51.8707 252.4316 0003122 210.5477 149.5328 15.36795233  6066
KUIPER-00147            
1 65768U 25217G   25307.56023095  .00037785  00000+0  10718-2 0  9994
2 65768  51.8661 254.1349 0005833 231.5416 128.5047 15.35846008  6014
KUIPER-00148            
1 65769U 25217H   25307.96930504  .00032283  00000+0  93836-3 0  9992
2 65769  51.8609 252.3547 0008435 249.7353 110.2726 15.35141574  6073
KUIPER-00150            
1 65770U 25217J   25307.91670139 -.00739776  00000+0 -30080-1 0  9997
2 65770  51.8642 252.9756 0008339 253.1451 346.7384 15.26352965  5625
KUIPER-00151            
1 65771U 25217K   25307.86685450  .00037652  00000+0  10360-2 0  9996
2 65771  51.8689 252.4567 0004523 215.4691 144.5995 15.36805171  6064
KUIPER-00152            
1 65772U 25217L   25307.96867109  .00044181  00000+0  11715-2 0  9991
2 65772  51.8731 251.6467 0003348 119.9213 240.2107 15.37879937  6088
KUIPER-00153            
1 65773U 25217M   25307.91670139 -.00608441  00000+0 -26383-1 0  9995
2 65773  51.8691 253.0523 0009223 250.5316 349.4716 15.24137221  5713
KUIPER-00155            
1 65774U 25217N   25307.87723215  .00038531  00000+0  10802-2 0  9990
2 65774  51.8658 252.5164 0004324 221.9019 138.1637 15.36210557  6062
KUIPER-00156            
1 65775U 25217P   25307.84532818  .00053017  00000+0  14117-2 0  9994
2 65775  51.8724 252.3208 0002855 149.9250 210.1902 15.37671588  6069
KUIPER-00158            
1 65776U 25217Q   25307.47998716 -.00059190  00000+0 -16467-2 0  9997
2 65776  51.8698 254.3644 0002622 254.2660 105.8037 15.36341328  6001
KUIPER-00163            
1 65777U 25217R   25307.91670139 -.00252795  00000+0 -89311-2 0  9997
2 65777  51.8660 252.5900 0007236 252.4745 181.7888 15.29711826  1307
